[{"OBJECT_NAME":"STARLINK-2478","OBJECT_ID":"2021-027AV","EPOCH":"2026-03-09T15:58:54.796800","MEAN_MOTION":15.29082675,"ECCENTRICITY":0.00032054,"INCLINATION":53.1606,"RA_OF_ASC_NODE":168.0254,"ARG_OF_PERICENTER":139.463,"MEAN_ANOMALY":220.6609,"EPHEMERIS_TYPE":0,"CLASSIFICATION_TYPE":"U","NORAD_CAT_ID":48135,"ELEMENT_SET_NO":999,"REV_AT_EPOCH":27247,"BSTAR":-0.0038835427,"MEAN_MOTION_DOT":-0.00109876,"MEAN_MOTION_DDOT":0},{"OBJECT_NAME":"FLOCK 4G-12","OBJECT_ID":"2025-009S","EPOCH":"2026-03-09T17:16:21.445824","MEAN_MOTION":15.27059194,"ECCENTRICITY":0.00028933,"INCLINATION":97.4059,"RA_OF_ASC_NODE":151.1894,"ARG_OF_PERICENTER":310.1775,"MEAN_ANOMALY":49.9211,"EPHEMERIS_TYPE":0,"CLASSIFICATION_TYPE":"U","NORAD_CAT_ID":62625,"ELEMENT_SET_NO":999,"REV_AT_EPOCH":6371,"BSTAR":0.00043519262,"MEAN_MOTION_DOT":0.00011487,"MEAN_MOTION_DDOT":0}]
